[{"OBJECT_NAME":"STARLINK-6340","OBJECT_ID":"2023-099AK","EPOCH":"2026-03-09T11:44:15.673920","MEAN_MOTION":15.02554822,"ECCENTRICITY":0.00018231,"INCLINATION":43.0067,"RA_OF_ASC_NODE":237.2728,"ARG_OF_PERICENTER":240.6498,"MEAN_ANOMALY":119.4162,"EPHEMERIS_TYPE":0,"CLASSIFICATION_TYPE":"U","NORAD_CAT_ID":57361,"ELEMENT_SET_NO":999,"REV_AT_EPOCH":14623,"BSTAR":-0.00035796033,"MEAN_MOTION_DOT":-5.038e-5,"MEAN_MOTION_DDOT":0},{"OBJECT_NAME":"H-2A R\/B","OBJECT_ID":"2025-141B","EPOCH":"2026-03-09T20:50:08.593728","MEAN_MOTION":14.90469893,"ECCENTRICITY":0.00923902,"INCLINATION":98.076,"RA_OF_ASC_NODE":17.3096,"ARG_OF_PERICENTER":151.0716,"MEAN_ANOMALY":209.5668,"EPHEMERIS_TYPE":0,"CLASSIFICATION_TYPE":"U","NORAD_CAT_ID":64695,"ELEMENT_SET_NO":999,"REV_AT_EPOCH":3783,"BSTAR":0.00033350933,"MEAN_MOTION_DOT":3.464e-5,"MEAN_MOTION_DDOT":0}]
